0 COSMOS 1275 DEB
1 12756U 81053CZ  13282.39426282  .00004817  00000-0  15591-2 0  7654
2 12756 082.9913 249.1880 0026388 081.0683 072.7930 14.38685679661255
0 COSMOS 1275 DEB
1 12756U 81053CZ  13283.61652222  .00002887  00000-0  93849-3 0  7664
2 12756 082.9905 248.1890 0026211 076.2539 284.2062 14.38683592661435
0 COSMOS 1275 DEB
1 12756U 81053CZ  13283.62673315  .00005803  00000-0  18790-2 0  7663
2 12756 082.9912 248.1805 0026421 077.3248 336.0188 14.38690298661437
0 COSMOS 1275 DEB
1 12756U 81053CZ  13286.07506420  .00004511  00000-0  14591-2 0  7689
2 12756 082.9910 246.1790 0026435 070.2649 056.1823 14.38711297661785
0 COSMOS 1275 DEB
1 12756U 81053CZ  13287.11917508  .00004508  00000-0  14578-2 0  7690
2 12756 082.9910 245.3253 0026430 067.2507 063.7994 14.38718248661937
0 COSMOS 1275 DEB
1 12756U 81053CZ  13288.36977823  .00006710  00000-0  21715-2 0  7704
2 12756 082.9912 244.3025 0026496 063.6842 060.8722 14.38732666662117
0 COSMOS 1275 DEB
1 12756U 81053CZ  13289.60826074  .00006806  00000-0  22022-2 0  7712
2 12756 082.9917 243.2896 0026453 060.1127 355.2797 14.38744363662296
0 COSMOS 1275 DEB
1 12756U 81053CZ  13291.08299453  .00005796  00000-0  18739-2 0  7720
2 12756 082.9923 242.0837 0026441 055.9023 073.3148 14.38761068662502
0 COSMOS 1275 DEB
1 12756U 81053CZ  13292.12607613  .00005174  00000-0  16720-2 0  7736
2 12756 082.9926 241.2309 0026427 052.8689 075.8140 14.38770615662651
0 COSMOS 1275 DEB
1 12756U 81053CZ  13293.31346117  .00006130  00000-0  19815-2 0  7749
2 12756 082.9928 240.2603 0026392 049.4532 105.7230 14.38782514662822
0 COSMOS 1275 DEB
1 12756U 81053CZ  13294.81923307  .00006943  00000-0  22442-2 0  7750
2 12756 082.9927 239.0295 0026373 045.1172 344.7510 14.38797670663046
0 COSMOS 1275 DEB
1 12756U 81053CZ  13296.02180164  .00006637  00000-0  21447-2 0  7766
2 12756 082.9926 238.0466 0026327 041.6222 093.4554 14.38809596663216
